{
  "norad_id": 62841,
  "name": "STARLINK-11531 [DTC]",
  "history": [
    {
      "epoch": "2026-03-28T08:22:47.155296",
      "apogee_km": 359.1128417337195,
      "perigee_km": 353.5280908460745,
      "latitude_deg": -28.91327462263918,
      "longitude_deg": 137.61906144022942,
      "semi_major_axis_km": 6734.457466289897,
      "eccentricity": 0.00041464,
      "inclination_deg": 43.0011,
      "raan_deg": 193.6616,
      "arg_perigee_deg": 294.3072,
      "mean_anomaly_deg": 65.7362,
      "mean_motion_rev_day": 15.70901088
    }
  ]
}