{"fetched_at":"2026-03-29T02:12:04Z","count":15717,"tles":[{"name":"STARLINK-11531 [DTC]","line1":"1 62841U 25019N   26087.34915689  .00224482  00000+0  17013-2 0  9991","line2":"2 62841  43.0011 193.6616 0004146 294.3072  65.7362 15.70901088 66815","category":"Starlink"}]}